STARLINK-36167          
1 67011U 25293J   26002.83335648 -.00142524  00000+0 -23491-2 0  9996
2 67011  70.0000 263.7026 0003183 267.0123  83.1505 15.52596798  3480
STARLINK-36175          
1 67012U 25293K   26002.83335648 -.00033685  00000+0 -54648-3 0  9993
2 67012  69.9999 263.6985 0003353 267.8662  86.1315 15.52551580  3485
STARLINK-35856          
1 67013U 25293L   26002.83335648 -.00177565  00000+0 -29378-2 0  9991
2 67013  69.9999 263.6954 0003621 267.8748  88.0309 15.52616441  3487
STARLINK-36207          
1 67014U 25293M   26002.83335648 -.00110581  00000+0 -18154-2 0  9997
2 67014  69.9999 263.6937 0003361 269.0112  88.8141 15.52585806  3559
STARLINK-36093          
1 67015U 25293N   26002.83335648 -.00152387  00000+0 -25145-2 0  9996
2 67015  69.9999 263.6887 0003330 269.0463  92.6127 15.52601129  3485
STARLINK-36120          
1 67016U 25293P   26002.83335648 -.00146725  00000+0 -24195-2 0  9990
2 67016  69.9999 263.6910 0003392 267.4562  92.2901 15.52598078  3487
STARLINK-35498          
1 67017U 25293Q   26002.83335648 -.00178217  00000+0 -29490-2 0  9995
2 67017  70.0001 263.6860 0003372 270.7052  92.8682 15.52616146  3689
STARLINK-36106          
1 67018U 25293R   26002.83335648 -.00141637  00000+0 -23341-2 0  9991
2 67018  70.0001 263.6841 0003444 265.3579 100.1347 15.52596589  3604
STARLINK-35688          
1 67019U 25293S   26002.83335648 -.00142202  00000+0 -23438-2 0  9998
2 67019  70.0000 263.6819 0003340 266.9315 100.4828 15.52595121  3685
STARLINK-36172          
1 67020U 25293T   26002.83335648 -.00138973  00000+0 -22897-2 0  9998
2 67020  70.0001 263.6796 0003362 266.9441 102.3866 15.52593553  3608
STARLINK-36184          
1 67021U 25293U   26002.83335648 -.00175435  00000+0 -29023-2 0  9991
2 67021  69.9999 263.6770 0003327 268.6164 102.6264 15.52613087  3606
STARLINK-36209          
1 67022U 25293V   26002.83335648 -.00145352  00000+0 -23951-2 0  9991
2 67022  70.0001 263.6749 0003558 272.4086 100.7373 15.52612694  3605
