CCSDS_OMM_VERS = 2.0
CREATION_DATE  = 
ORIGINATOR     = 

OBJECT_NAME    = STARLINK-36167
OBJECT_ID      = 2025-293J
CENTER_NAME    = EARTH
REF_FRAME      = TEME
TIME_SYSTEM    = UTC
MEAN_ELEMENT_THEORY = SGP/SGP4

EPOCH          = 2026-01-02T20:00:01.999872
MEAN_MOTION    = 15.52596798
ECCENTRICITY   = .0003183
INCLINATION    = 70.0000
RA_OF_ASC_NODE = 263.7026
ARG_OF_PERICENTER = 267.0123
MEAN_ANOMALY   = 83.1505

EPHEMERIS_TYPE = 0
CLASSIFICATION_TYPE = U
NORAD_CAT_ID   = 67011
ELEMENT_SET_NO = 999
REV_AT_EPOCH   = 348
BSTAR          = -.23491E-2
MEAN_MOTION_DOT = -.142524E-2
MEAN_MOTION_DDOT = 0

CCSDS_OMM_VERS = 2.0
CREATION_DATE  = 
ORIGINATOR     = 

OBJECT_NAME    = STARLINK-36175
OBJECT_ID      = 2025-293K
CENTER_NAME    = EARTH
REF_FRAME      = TEME
TIME_SYSTEM    = UTC
MEAN_ELEMENT_THEORY = SGP/SGP4

EPOCH          = 2026-01-02T20:00:01.999872
MEAN_MOTION    = 15.52551580
ECCENTRICITY   = .0003353
INCLINATION    = 69.9999
RA_OF_ASC_NODE = 263.6985
ARG_OF_PERICENTER = 267.8662
MEAN_ANOMALY   = 86.1315

EPHEMERIS_TYPE = 0
CLASSIFICATION_TYPE = U
NORAD_CAT_ID   = 67012
ELEMENT_SET_NO = 999
REV_AT_EPOCH   = 348
BSTAR          = -.54648E-3
MEAN_MOTION_DOT = -.33685E-3
MEAN_MOTION_DDOT = 0

CCSDS_OMM_VERS = 2.0
CREATION_DATE  = 
ORIGINATOR     = 

OBJECT_NAME    = STARLINK-35856
OBJECT_ID      = 2025-293L
CENTER_NAME    = EARTH
REF_FRAME      = TEME
TIME_SYSTEM    = UTC
MEAN_ELEMENT_THEORY = SGP/SGP4

EPOCH          = 2026-01-02T20:00:01.999872
MEAN_MOTION    = 15.52616441
ECCENTRICITY   = .0003621
INCLINATION    = 69.9999
RA_OF_ASC_NODE = 263.6954
ARG_OF_PERICENTER = 267.8748
MEAN_ANOMALY   = 88.0309

EPHEMERIS_TYPE = 0
CLASSIFICATION_TYPE = U
NORAD_CAT_ID   = 67013
ELEMENT_SET_NO = 999
REV_AT_EPOCH   = 348
BSTAR          = -.29378E-2
MEAN_MOTION_DOT = -.177565E-2
MEAN_MOTION_DDOT = 0

CCSDS_OMM_VERS = 2.0
CREATION_DATE  = 
ORIGINATOR     = 

OBJECT_NAME    = STARLINK-36207
OBJECT_ID      = 2025-293M
CENTER_NAME    = EARTH
REF_FRAME      = TEME
TIME_SYSTEM    = UTC
MEAN_ELEMENT_THEORY = SGP/SGP4

EPOCH          = 2026-01-02T20:00:01.999872
MEAN_MOTION    = 15.52585806
ECCENTRICITY   = .0003361
INCLINATION    = 69.9999
RA_OF_ASC_NODE = 263.6937
ARG_OF_PERICENTER = 269.0112
MEAN_ANOMALY   = 88.8141

EPHEMERIS_TYPE = 0
CLASSIFICATION_TYPE = U
NORAD_CAT_ID   = 67014
ELEMENT_SET_NO = 999
REV_AT_EPOCH   = 355
BSTAR          = -.18154E-2
MEAN_MOTION_DOT = -.110581E-2
MEAN_MOTION_DDOT = 0

CCSDS_OMM_VERS = 2.0
CREATION_DATE  = 
ORIGINATOR     = 

OBJECT_NAME    = STARLINK-36093
OBJECT_ID      = 2025-293N
CENTER_NAME    = EARTH
REF_FRAME      = TEME
TIME_SYSTEM    = UTC
MEAN_ELEMENT_THEORY = SGP/SGP4

EPOCH          = 2026-01-02T20:00:01.999872
MEAN_MOTION    = 15.52601129
ECCENTRICITY   = .000333
INCLINATION    = 69.9999
RA_OF_ASC_NODE = 263.6887
ARG_OF_PERICENTER = 269.0463
MEAN_ANOMALY   = 92.6127

EPHEMERIS_TYPE = 0
CLASSIFICATION_TYPE = U
NORAD_CAT_ID   = 67015
ELEMENT_SET_NO = 999
REV_AT_EPOCH   = 348
BSTAR          = -.25145E-2
MEAN_MOTION_DOT = -.152387E-2
MEAN_MOTION_DDOT = 0

CCSDS_OMM_VERS = 2.0
CREATION_DATE  = 
ORIGINATOR     = 

OBJECT_NAME    = STARLINK-36120
OBJECT_ID      = 2025-293P
CENTER_NAME    = EARTH
REF_FRAME      = TEME
TIME_SYSTEM    = UTC
MEAN_ELEMENT_THEORY = SGP/SGP4

EPOCH          = 2026-01-02T20:00:01.999872
MEAN_MOTION    = 15.52598078
ECCENTRICITY   = .0003392
INCLINATION    = 69.9999
RA_OF_ASC_NODE = 263.6910
ARG_OF_PERICENTER = 267.4562
MEAN_ANOMALY   = 92.2901

EPHEMERIS_TYPE = 0
CLASSIFICATION_TYPE = U
NORAD_CAT_ID   = 67016
ELEMENT_SET_NO = 999
REV_AT_EPOCH   = 348
BSTAR          = -.24195E-2
MEAN_MOTION_DOT = -.146725E-2
MEAN_MOTION_DDOT = 0

CCSDS_OMM_VERS = 2.0
CREATION_DATE  = 
ORIGINATOR     = 

OBJECT_NAME    = STARLINK-35498
OBJECT_ID      = 2025-293Q
CENTER_NAME    = EARTH
REF_FRAME      = TEME
TIME_SYSTEM    = UTC
MEAN_ELEMENT_THEORY = SGP/SGP4

EPOCH          = 2026-01-02T20:00:01.999872
MEAN_MOTION    = 15.52616146
ECCENTRICITY   = .0003372
INCLINATION    = 70.0001
RA_OF_ASC_NODE = 263.6860
ARG_OF_PERICENTER = 270.7052
MEAN_ANOMALY   = 92.8682

EPHEMERIS_TYPE = 0
CLASSIFICATION_TYPE = U
NORAD_CAT_ID   = 67017
ELEMENT_SET_NO = 999
REV_AT_EPOCH   = 368
BSTAR          = -.2949E-2
MEAN_MOTION_DOT = -.178217E-2
MEAN_MOTION_DDOT = 0

CCSDS_OMM_VERS = 2.0
CREATION_DATE  = 
ORIGINATOR     = 

OBJECT_NAME    = STARLINK-36106
OBJECT_ID      = 2025-293R
CENTER_NAME    = EARTH
REF_FRAME      = TEME
TIME_SYSTEM    = UTC
MEAN_ELEMENT_THEORY = SGP/SGP4

EPOCH          = 2026-01-02T20:00:01.999872
MEAN_MOTION    = 15.52596589
ECCENTRICITY   = .0003444
INCLINATION    = 70.0001
RA_OF_ASC_NODE = 263.6841
ARG_OF_PERICENTER = 265.3579
MEAN_ANOMALY   = 100.1347

EPHEMERIS_TYPE = 0
CLASSIFICATION_TYPE = U
NORAD_CAT_ID   = 67018
ELEMENT_SET_NO = 999
REV_AT_EPOCH   = 360
BSTAR          = -.23341E-2
MEAN_MOTION_DOT = -.141637E-2
MEAN_MOTION_DDOT = 0

CCSDS_OMM_VERS = 2.0
CREATION_DATE  = 
ORIGINATOR     = 

OBJECT_NAME    = STARLINK-35688
OBJECT_ID      = 2025-293S
CENTER_NAME    = EARTH
REF_FRAME      = TEME
TIME_SYSTEM    = UTC
MEAN_ELEMENT_THEORY = SGP/SGP4

EPOCH          = 2026-01-02T20:00:01.999872
MEAN_MOTION    = 15.52595121
ECCENTRICITY   = .000334
INCLINATION    = 70.0000
RA_OF_ASC_NODE = 263.6819
ARG_OF_PERICENTER = 266.9315
MEAN_ANOMALY   = 100.4828

EPHEMERIS_TYPE = 0
CLASSIFICATION_TYPE = U
NORAD_CAT_ID   = 67019
ELEMENT_SET_NO = 999
REV_AT_EPOCH   = 368
BSTAR          = -.23438E-2
MEAN_MOTION_DOT = -.142202E-2
MEAN_MOTION_DDOT = 0

CCSDS_OMM_VERS = 2.0
CREATION_DATE  = 
ORIGINATOR     = 

OBJECT_NAME    = STARLINK-36172
OBJECT_ID      = 2025-293T
CENTER_NAME    = EARTH
REF_FRAME      = TEME
TIME_SYSTEM    = UTC
MEAN_ELEMENT_THEORY = SGP/SGP4

EPOCH          = 2026-01-02T20:00:01.999872
MEAN_MOTION    = 15.52593553
ECCENTRICITY   = .0003362
INCLINATION    = 70.0001
RA_OF_ASC_NODE = 263.6796
ARG_OF_PERICENTER = 266.9441
MEAN_ANOMALY   = 102.3866

EPHEMERIS_TYPE = 0
CLASSIFICATION_TYPE = U
NORAD_CAT_ID   = 67020
ELEMENT_SET_NO = 999
REV_AT_EPOCH   = 360
BSTAR          = -.22897E-2
MEAN_MOTION_DOT = -.138973E-2
MEAN_MOTION_DDOT = 0

CCSDS_OMM_VERS = 2.0
CREATION_DATE  = 
ORIGINATOR     = 

OBJECT_NAME    = STARLINK-36184
OBJECT_ID      = 2025-293U
CENTER_NAME    = EARTH
REF_FRAME      = TEME
TIME_SYSTEM    = UTC
MEAN_ELEMENT_THEORY = SGP/SGP4

EPOCH          = 2026-01-02T20:00:01.999872
MEAN_MOTION    = 15.52613087
ECCENTRICITY   = .0003327
INCLINATION    = 69.9999
RA_OF_ASC_NODE = 263.6770
ARG_OF_PERICENTER = 268.6164
MEAN_ANOMALY   = 102.6264

EPHEMERIS_TYPE = 0
CLASSIFICATION_TYPE = U
NORAD_CAT_ID   = 67021
ELEMENT_SET_NO = 999
REV_AT_EPOCH   = 360
BSTAR          = -.29023E-2
MEAN_MOTION_DOT = -.175435E-2
MEAN_MOTION_DDOT = 0

CCSDS_OMM_VERS = 2.0
CREATION_DATE  = 
ORIGINATOR     = 

OBJECT_NAME    = STARLINK-36209
OBJECT_ID      = 2025-293V
CENTER_NAME    = EARTH
REF_FRAME      = TEME
TIME_SYSTEM    = UTC
MEAN_ELEMENT_THEORY = SGP/SGP4

EPOCH          = 2026-01-02T20:00:01.999872
MEAN_MOTION    = 15.52612694
ECCENTRICITY   = .0003558
INCLINATION    = 70.0001
RA_OF_ASC_NODE = 263.6749
ARG_OF_PERICENTER = 272.4086
MEAN_ANOMALY   = 100.7373

EPHEMERIS_TYPE = 0
CLASSIFICATION_TYPE = U
NORAD_CAT_ID   = 67022
ELEMENT_SET_NO = 999
REV_AT_EPOCH   = 360
BSTAR          = -.23951E-2
MEAN_MOTION_DOT = -.145352E-2
MEAN_MOTION_DDOT = 0

